{
  "norad_id": 39498,
  "name": "GSAT-14",
  "history": [
    {
      "epoch": "2026-03-28T21:17:38.519232Z",
      "apogee_km": 35802.000305252346,
      "perigee_km": 35771.157658805816,
      "latitude_deg": 0.038307404347853596,
      "longitude_deg": 73.9656175166706,
      "height_km": 35787.18707024973,
      "semi_major_axis_km": 42164.71598202908,
      "eccentricity": 0.00036574,
      "inclination_deg": 0.0405,
      "raan_deg": 87.5331,
      "arg_perigee_deg": 226.0932,
      "mean_anomaly_deg": 266.0694,
      "mean_motion_rev_day": 1.00271842
    },
    {
      "epoch": "2026-03-29T03:06:59.343264Z",
      "apogee_km": 35801.89041239978,
      "perigee_km": 35771.253534859534,
      "latitude_deg": -0.00486981377116368,
      "longitude_deg": 74.00236120492127,
      "height_km": 35770.86452767799,
      "semi_major_axis_km": 42164.708973629655,
      "eccentricity": 0.0003633,
      "inclination_deg": 0.0412,
      "raan_deg": 87.0217,
      "arg_perigee_deg": 226.9611,
      "mean_anomaly_deg": 353.2889,
      "mean_motion_rev_day": 1.00271867
    },
    {
      "epoch": "2026-03-30T03:04:35.354208Z",
      "apogee_km": 35801.52142542973,
      "perigee_km": 35771.54234585204,
      "latitude_deg": -0.00428760784689801,
      "longitude_deg": 74.0014019359062,
      "height_km": 35771.18120836417,
      "semi_major_axis_km": 42164.66888564089,
      "eccentricity": 0.0003555,
      "inclination_deg": 0.0443,
      "raan_deg": 85.7714,
      "arg_perigee_deg": 229.4401,
      "mean_anomaly_deg": 352.4451,
      "mean_motion_rev_day": 1.0027201
    },
    {
      "epoch": "2026-03-30T09:55:18.459840Z",
      "apogee_km": 35801.44372510955,
      "perigee_km": 35771.600422710224,
      "latitude_deg": -0.037955956674912396,
      "longitude_deg": 74.04679639347343,
      "height_km": 35787.240412640516,
      "semi_major_axis_km": 42164.65907390989,
      "eccentricity": 0.00035389,
      "inclination_deg": 0.0452,
      "raan_deg": 85.5678,
      "arg_perigee_deg": 230.1119,
      "mean_anomaly_deg": 94.9377,
      "mean_motion_rev_day": 1.00272045
    },
    {
      "epoch": "2026-03-30T20:11:21.832224Z",
      "apogee_km": 35801.284112104535,
      "perigee_km": 35771.71742480854,
      "latitude_deg": 0.03967791567945483,
      "longitude_deg": 73.96888375901781,
      "height_km": 35791.37160298948,
      "semi_major_axis_km": 42164.637768456545,
      "eccentricity": 0.00035061,
      "inclination_deg": 0.0464,
      "raan_deg": 85.022,
      "arg_perigee_deg": 231.1337,
      "mean_anomaly_deg": 248.8983,
      "mean_motion_rev_day": 1.00272121
    },
    {
      "epoch": "2026-03-31T20:08:53.143008Z",
      "apogee_km": 35800.911609982766,
      "perigee_km": 35772.0119939639,
      "latitude_deg": 0.03941995351056961,
      "longitude_deg": 73.96886999998239,
      "height_km": 35791.44343299521,
      "semi_major_axis_km": 42164.598801973334,
      "eccentricity": 0.0003427,
      "inclination_deg": 0.0492,
      "raan_deg": 83.8765,
      "arg_perigee_deg": 233.6322,
      "mean_anomaly_deg": 247.9114,
      "mean_motion_rev_day": 1.0027226
    },
    {
      "epoch": "2026-04-01T14:58:20.176032Z",
      "apogee_km": 35800.615406343255,
      "perigee_km": 35772.24708482763,
      "latitude_deg": 0.0027806958239318894,
      "longitude_deg": 74.01133562170469,
      "height_km": 35799.857403297465,
      "semi_major_axis_km": 42164.56824558545,
      "eccentricity": 0.0003364,
      "inclination_deg": 0.0513,
      "raan_deg": 83.0116,
      "arg_perigee_deg": 235.6622,
      "mean_anomaly_deg": 169.8837,
      "mean_motion_rev_day": 1.00272369
    },
    {
      "epoch": "2026-04-01T14:58:20.176896Z",
      "apogee_km": 35800.61371976053,
      "perigee_km": 35772.248771410355,
      "latitude_deg": 0.0027806952289908863,
      "longitude_deg": 74.01133118644475,
      "height_km": 35799.85574619364,
      "semi_major_axis_km": 42164.56824558545,
      "eccentricity": 0.00033636,
      "inclination_deg": 0.0513,
      "raan_deg": 83.0116,
      "arg_perigee_deg": 235.6622,
      "mean_anomaly_deg": 169.8837,
      "mean_motion_rev_day": 1.00272369
    },
    {
      "epoch": "2026-04-04T01:09:31.332384Z",
      "apogee_km": 35805.684747349165,
      "perigee_km": 35766.898532731764,
      "latitude_deg": 0.016219876932420427,
      "longitude_deg": 73.9156877884157,
      "height_km": 35797.35944652922,
      "semi_major_axis_km": 42164.42864004047,
      "eccentricity": 0.00045994,
      "inclination_deg": 0.047,
      "raan_deg": 83.5781,
      "arg_perigee_deg": 326.9888,
      "mean_anomaly_deg": 233.1371,
      "mean_motion_rev_day": 1.00272867
    }
  ]
}